[
  {
    "OBJECT_NAME": "STARLINK-30494",
    "OBJECT_ID": "23151G",
    "EPOCH": "2025-11-11T06:24:37.564416",
    "MEAN_MOTION": 15.80890446,
    "ECCENTRICITY": 0.0002751,
    "INCLINATION": 42.9808,
    "RA_OF_ASC_NODE": 170.1536,
    "ARG_OF_PERICENTER": 250.1649,
    "MEAN_ANOMALY": 109.8926,
    "EPHEMERIS_TYPE": 0,
    "CLASSIFICATION_TYPE": "U",
    "NORAD_CAT_ID": 57970,
    "ELEMENT_SET_NO": 999,
    "REV_AT_EPOCH": 11899,
    "BSTAR": 0.00029433,
    "MEAN_MOTION_DOT": 0.00058702,
    "MEAN_MOTION_DDOT": 0.0,
    "TLE_LINE1": "1 57970U 23151G   25315.26710144  .00058702  00000+0  29433-3 0  9996",
    "TLE_LINE2": "2 57970  42.9808 170.1536 0002751 250.1649 109.8926 15.80890446118994",
    "COMMENT": "Grouped by shell and plane from TLE"
  },
  {
    "OBJECT_NAME": "STARLINK-11286 [DTC]",
    "OBJECT_ID": "24164A",
    "EPOCH": "2025-11-11T01:00:14.094720",
    "MEAN_MOTION": 15.69720919,
    "ECCENTRICITY": 0.0001474,
    "INCLINATION": 53.1568,
    "RA_OF_ASC_NODE": 176.1825,
    "ARG_OF_PERICENTER": 98.0999,
    "MEAN_ANOMALY": 262.0186,
    "EPHEMERIS_TYPE": 0,
    "CLASSIFICATION_TYPE": "U",
    "NORAD_CAT_ID": 61050,
    "ELEMENT_SET_NO": 999,
    "REV_AT_EPOCH": 6678,
    "BSTAR": 2.7482000000000002e-06,
    "MEAN_MOTION_DOT": -2.56e-06,
    "MEAN_MOTION_DDOT": 0.0,
    "TLE_LINE1": "1 61050U 24164A   25315.04182980 -.00000256  00000+0  27482-5 0  9998",
    "TLE_LINE2": "2 61050  53.1568 176.1825 0001474  98.0999 262.0186 15.69720919 66783",
    "COMMENT": "Grouped by shell and plane from TLE"
  },
  {
    "OBJECT_NAME": "STARLINK-11252 [DTC]",
    "OBJECT_ID": "24164B",
    "EPOCH": "2025-11-11T00:53:09.997728",
    "MEAN_MOTION": 15.69720371,
    "ECCENTRICITY": 9.25e-05,
    "INCLINATION": 53.156,
    "RA_OF_ASC_NODE": 176.1488,
    "ARG_OF_PERICENTER": 89.0482,
    "MEAN_ANOMALY": 271.0642,
    "EPHEMERIS_TYPE": 0,
    "CLASSIFICATION_TYPE": "U",
    "NORAD_CAT_ID": 61051,
    "ELEMENT_SET_NO": 999,
    "REV_AT_EPOCH": 6678,
    "BSTAR": 5.2935e-06,
    "MEAN_MOTION_DOT": 5.3e-07,
    "MEAN_MOTION_DDOT": 0.0,
    "TLE_LINE1": "1 61051U 24164B   25315.03692127  .00000053  00000+0  52935-5 0  9992",
    "TLE_LINE2": "2 61051  53.1560 176.1488 0000925  89.0482 271.0642 15.69720371 66787",
    "COMMENT": "Grouped by shell and plane from TLE"
  },
  {
    "OBJECT_NAME": "STARLINK-11230 [DTC]",
    "OBJECT_ID": "24164D",
    "EPOCH": "2025-11-11T00:39:03.573216",
    "MEAN_MOTION": 15.69658179,
    "ECCENTRICITY": 0.0001438,
    "INCLINATION": 53.1598,
    "RA_OF_ASC_NODE": 176.0832,
    "ARG_OF_PERICENTER": 60.2746,
    "MEAN_ANOMALY": 299.8415,
    "EPHEMERIS_TYPE": 0,
    "CLASSIFICATION_TYPE": "U",
    "NORAD_CAT_ID": 61053,
    "ELEMENT_SET_NO": 999,
    "REV_AT_EPOCH": 6678,
    "BSTAR": 9.743600000000001e-05,
    "MEAN_MOTION_DOT": 0.00011206,
    "MEAN_MOTION_DDOT": 0.0,
    "TLE_LINE1": "1 61053U 24164D   25315.02712469  .00011206  00000+0  97436-4 0  9991",
    "TLE_LINE2": "2 61053  53.1598 176.0832 0001438  60.2746 299.8415 15.69658179 66788",
    "COMMENT": "Grouped by shell and plane from TLE"
  },
  {
    "OBJECT_NAME": "STARLINK-11294 [DTC]",
    "OBJECT_ID": "24164E",
    "EPOCH": "2025-11-11T00:31:58.200096",
    "MEAN_MOTION": 15.69730282,
    "ECCENTRICITY": 1.8e-05,
    "INCLINATION": 53.1603,
    "RA_OF_ASC_NODE": 176.0486,
    "ARG_OF_PERICENTER": 85.731,
    "MEAN_ANOMALY": 274.3729,
    "EPHEMERIS_TYPE": 0,
    "CLASSIFICATION_TYPE": "U",
    "NORAD_CAT_ID": 61054,
    "ELEMENT_SET_NO": 999,
    "REV_AT_EPOCH": 6678,
    "BSTAR": 0.0,
    "MEAN_MOTION_DOT": -2.084e-05,
    "MEAN_MOTION_DDOT": 0.0,
    "TLE_LINE1": "1 61054U 24164E   25315.02220139 -.00002084  00000+0 -12351-4 0  9999",
    "TLE_LINE2": "2 61054  53.1603 176.0486 0000180  85.7310 274.3729 15.69730282 66785",
    "COMMENT": "Grouped by shell and plane from TLE"
  },
  {
    "OBJECT_NAME": "STARLINK-11268 [DTC]",
    "OBJECT_ID": "24164F",
    "EPOCH": "2025-11-11T00:24:51.485184",
    "MEAN_MOTION": 15.69777331,
    "ECCENTRICITY": 4.19e-05,
    "INCLINATION": 53.1595,
    "RA_OF_ASC_NODE": 176.0165,
    "ARG_OF_PERICENTER": 233.5499,
    "MEAN_ANOMALY": 126.5481,
    "EPHEMERIS_TYPE": 0,
    "CLASSIFICATION_TYPE": "U",
    "NORAD_CAT_ID": 61055,
    "ELEMENT_SET_NO": 999,
    "REV_AT_EPOCH": 6678,
    "BSTAR": 0.0,
    "MEAN_MOTION_DOT": -4.744e-05,
    "MEAN_MOTION_DDOT": 0.0,
    "TLE_LINE1": "1 61055U 24164F   25315.01726256 -.00004744  00000+0 -34227-4 0  9991",
    "TLE_LINE2": "2 61055  53.1595 176.0165 0000419 233.5499 126.5481 15.69777331 66785",
    "COMMENT": "Grouped by shell and plane from TLE"
  },
  {
    "OBJECT_NAME": "STARLINK-11231 [DTC]",
    "OBJECT_ID": "24164H",
    "EPOCH": "2025-11-11T00:10:56.073216",
    "MEAN_MOTION": 15.69716323,
    "ECCENTRICITY": 4.7e-05,
    "INCLINATION": 53.16,
    "RA_OF_ASC_NODE": 176.6853,
    "ARG_OF_PERICENTER": 94.0901,
    "MEAN_ANOMALY": 266.0171,
    "EPHEMERIS_TYPE": 0,
    "CLASSIFICATION_TYPE": "U",
    "NORAD_CAT_ID": 61057,
    "ELEMENT_SET_NO": 999,
    "REV_AT_EPOCH": 6677,
    "BSTAR": 0.0,
    "MEAN_MOTION_DOT": -2.603e-05,
    "MEAN_MOTION_DDOT": 0.0,
    "TLE_LINE1": "1 61057U 24164H   25315.00759344 -.00002603  00000+0 -16640-4 0  9997",
    "TLE_LINE2": "2 61057  53.1600 176.6853 0000470  94.0901 266.0171 15.69716323 66778",
    "COMMENT": "Grouped by shell and plane from TLE"
  },
  {
    "OBJECT_NAME": "STARLINK-11299 [DTC]",
    "OBJECT_ID": "24164J",
    "EPOCH": "2025-11-11T00:03:52.915392",
    "MEAN_MOTION": 15.69663884,
    "ECCENTRICITY": 0.0001681,
    "INCLINATION": 53.155,
    "RA_OF_ASC_NODE": 176.6531,
    "ARG_OF_PERICENTER": 88.2981,
    "MEAN_ANOMALY": 271.8229,
    "EPHEMERIS_TYPE": 0,
    "CLASSIFICATION_TYPE": "U",
    "NORAD_CAT_ID": 61058,
    "ELEMENT_SET_NO": 999,
    "REV_AT_EPOCH": 6677,
    "BSTAR": 8.573100000000001e-05,
    "MEAN_MOTION_DOT": 9.79e-05,
    "MEAN_MOTION_DDOT": 0.0,
    "TLE_LINE1": "1 61058U 24164J   25315.00269578  .00009790  00000+0  85731-4 0  9992",
    "TLE_LINE2": "2 61058  53.1550 176.6531 0001681  88.2981 271.8229 15.69663884 66775",
    "COMMENT": "Grouped by shell and plane from TLE"
  },
  {
    "OBJECT_NAME": "STARLINK-11154 [DTC]",
    "OBJECT_ID": "24164K",
    "EPOCH": "2025-11-10T23:56:48.658560",
    "MEAN_MOTION": 15.69702729,
    "ECCENTRICITY": 0.0001364,
    "INCLINATION": 53.1602,
    "RA_OF_ASC_NODE": 176.6206,
    "ARG_OF_PERICENTER": 75.7287,
    "MEAN_ANOMALY": 284.3882,
    "EPHEMERIS_TYPE": 0,
    "CLASSIFICATION_TYPE": "U",
    "NORAD_CAT_ID": 61059,
    "ELEMENT_SET_NO": 999,
    "REV_AT_EPOCH": 6677,
    "BSTAR": 1.4235999999999999e-05,
    "MEAN_MOTION_DOT": 1.135e-05,
    "MEAN_MOTION_DDOT": 0.0,
    "TLE_LINE1": "1 61059U 24164K   25314.99778540  .00001135  00000+0  14236-4 0  9991",
    "TLE_LINE2": "2 61059  53.1602 176.6206 0001364  75.7287 284.3882 15.69702729 66777",
    "COMMENT": "Grouped by shell and plane from TLE"
  },
  {
    "OBJECT_NAME": "STARLINK-11297 [DTC]",
    "OBJECT_ID": "24164L",
    "EPOCH": "2025-11-10T23:49:42.975264",
    "MEAN_MOTION": 15.69711129,
    "ECCENTRICITY": 0.0002201,
    "INCLINATION": 53.1594,
    "RA_OF_ASC_NODE": 176.5874,
    "ARG_OF_PERICENTER": 174.662,
    "MEAN_ANOMALY": 185.4422,
    "EPHEMERIS_TYPE": 0,
    "CLASSIFICATION_TYPE": "U",
    "NORAD_CAT_ID": 61060,
    "ELEMENT_SET_NO": 999,
    "REV_AT_EPOCH": 6677,
    "BSTAR": 0.0,
    "MEAN_MOTION_DOT": -6.83e-06,
    "MEAN_MOTION_DDOT": 0.0,
    "TLE_LINE1": "1 61060U 24164L   25314.99285851 -.00000683  00000+0 -76685-6 0  9998",
    "TLE_LINE2": "2 61060  53.1594 176.5874 0002201 174.6620 185.4422 15.69711129 66775",
    "COMMENT": "Grouped by shell and plane from TLE"
  },
  {
    "OBJECT_NAME": "STARLINK-11233 [DTC]",
    "OBJECT_ID": "24164M",
    "EPOCH": "2025-11-11T01:14:21.791040",
    "MEAN_MOTION": 15.69716664,
    "ECCENTRICITY": 9.89e-05,
    "INCLINATION": 53.1579,
    "RA_OF_ASC_NODE": 176.2406,
    "ARG_OF_PERICENTER": 107.9195,
    "MEAN_ANOMALY": 252.1931,
    "EPHEMERIS_TYPE": 0,
    "CLASSIFICATION_TYPE": "U",
    "NORAD_CAT_ID": 61061,
    "ELEMENT_SET_NO": 999,
    "REV_AT_EPOCH": 6678,
    "BSTAR": 0.0,
    "MEAN_MOTION_DOT": -2.072e-05,
    "MEAN_MOTION_DDOT": 0.0,
    "TLE_LINE1": "1 61061U 24164M   25315.05164110 -.00002072  00000+0 -12247-4 0  9997",
    "TLE_LINE2": "2 61061  53.1579 176.2406 0000989 107.9195 252.1931 15.69716664 66781",
    "COMMENT": "Grouped by shell and plane from TLE"
  },
  {
    "OBJECT_NAME": "STARLINK-11236 [DTC]",
    "OBJECT_ID": "24164N",
    "EPOCH": "2025-11-11T01:07:16.494816",
    "MEAN_MOTION": 15.69781985,
    "ECCENTRICITY": 9.2e-06,
    "INCLINATION": 53.1591,
    "RA_OF_ASC_NODE": 176.2078,
    "ARG_OF_PERICENTER": 138.2616,
    "MEAN_ANOMALY": 221.8409,
    "EPHEMERIS_TYPE": 0,
    "CLASSIFICATION_TYPE": "U",
    "NORAD_CAT_ID": 61062,
    "ELEMENT_SET_NO": 999,
    "REV_AT_EPOCH": 6678,
    "BSTAR": 0.0,
    "MEAN_MOTION_DOT": -0.00014192,
    "MEAN_MOTION_DDOT": 0.0,
    "TLE_LINE1": "1 61062U 24164N   25315.04671869 -.00014192  00000+0 -11216-3 0  9991",
    "TLE_LINE2": "2 61062  53.1591 176.2078 0000092 138.2616 221.8409 15.69781985 66782",
    "COMMENT": "Grouped by shell and plane from TLE"
  },
  {
    "OBJECT_NAME": "STARLINK-11371 [DTC]",
    "OBJECT_ID": "25024A",
    "EPOCH": "2025-11-11T01:05:41.129088",
    "MEAN_MOTION": 15.70832253,
    "ECCENTRICITY": 0.0001877,
    "INCLINATION": 43.0,
    "RA_OF_ASC_NODE": 176.9035,
    "ARG_OF_PERICENTER": 258.0927,
    "MEAN_ANOMALY": 101.973,
    "EPHEMERIS_TYPE": 0,
    "CLASSIFICATION_TYPE": "U",
    "NORAD_CAT_ID": 62879,
    "ELEMENT_SET_NO": 999,
    "REV_AT_EPOCH": 4480,
    "BSTAR": 0.0029796000000000002,
    "MEAN_MOTION_DOT": 0.00400768,
    "MEAN_MOTION_DDOT": 0.0,
    "TLE_LINE1": "1 62879U 25024A   25315.04561492  .00400768  00000+0  29796-2 0  9991",
    "TLE_LINE2": "2 62879  43.0000 176.9035 0001877 258.0927 101.9730 15.70832253 44801",
    "COMMENT": "Grouped by shell and plane from TLE"
  }
]